"","name","id.x","spkid","full_name","pdes","prefix","neo","pha","H","G","M1","M2","K1","K2","PC","diameter","extent","albedo","rot_per","GM","BV","UB","IR","spec_B","spec_T","H_sigma","diameter_sigma","orbit_id","epoch","epoch_mjd","epoch_cal","equinox","e","a","q","i","om","w","ma","ad","n","tp","tp_cal","per","per_y","moid","moid_ld","moid_jup","t_jup","sigma_e","sigma_a","sigma_q","sigma_i","sigma_om","sigma_w","sigma_ma","sigma_ad","sigma_n","sigma_tp","sigma_per","class","producer","data_arc","first_obs","last_obs","n_obs_used","n_del_obs_used","n_dop_obs_used","condition_code","rms","two_body","A1","A2","A3","DT","id.y","nametype","recclass","mass..g.","fall","year","reclat","reclong","GeoLocation"
"134","Nantong","a0003051",2003051,"  3051 Nantong (1974 YP)","3051","","N","N",12.4,NA,NA,NA,NA,NA,NA,"13.4","",0.0752,3.69,NA,NA,NA,NA,"","",NA,NA,"JPL 14",2457400.5,57400,20160113,"J2000",0.258006126349786,2.59324946336309,1.92417521466212,13.3569345351488,280.181615651701,93.4217600909094,359.388934946138,3.26232371206406,0.236013925773856,2457403.08910593,20160115.5891059,1525.333722659,4.17613613322108,0.977967,380.59541739,2.44252,3.334,8.0773e-08,2.0226e-08,2.1932e-07,7.5477e-06,3.0293e-05,3.4412e-05,1.4274e-05,2.5444e-08,2.7611e-09,6.0489e-05,1.7845e-05,"MBA","Otto Matic",22685,"1953-12-07","2016-01-16",921,NA,NA,"0",0.46108,NA,NA,NA,NA,NA,16907,"Valid","H6","529","Fell",1984,32.11667,121.8,"(32.116670, 121.800000)"
"135","Navajo","a0003688",2003688,"  3688 Navajo (1981 FD)","3688","","N","N",15.1,NA,NA,NA,NA,NA,NA,"","",NA,NA,NA,NA,NA,NA,"","",NA,NA,"JPL 13",2457400.5,57400,20160113,"J2000",0.478870941617023,3.22167129100858,1.67890652630277,2.55948680777323,19.9689338580345,137.896587768113,12.4856032512855,4.76443605571439,0.170444202367799,2457327.24668262,20151031.7466826,2112.12816275887,5.78269175293325,0.689436,268.30780812,0.240019,2.995,4.7769e-08,1.7335e-08,1.486e-07,5.8637e-06,0.00010478,0.00010542,8.4021e-06,2.5636e-08,1.3757e-09,4.8781e-05,1.7047e-05,"OMB","Otto Matic",12821,"1981-02-09","2016-03-18",839,NA,NA,"0",0.60148,NA,NA,NA,NA,NA,16926,"Valid","Iron, IIAB","2184000","Found",1921,35.33333,-109.5,"(35.333330, -109.500000)"
"136","Neagari","a0005356",2005356,"  5356 Neagari (1991 FF1)","5356","","N","N",12.4,NA,NA,NA,NA,NA,NA,"","",NA,NA,NA,NA,NA,NA,"","",NA,NA,"JPL 18",2457400.5,57400,20160113,"J2000",0.155831577528316,2.60907192636111,2.20249613219141,14.3108101871429,172.891214473133,267.10352559734,57.2104756410434,3.0156477205308,0.233870258770906,2457155.87515569,20150513.3751557,1539.31501120306,4.21441481506655,1.27114,494.6895538,2.3545,3.35,4.269e-08,1.5517e-08,1.1102e-07,6.4694e-06,1.886e-05,2.8302e-05,2.0285e-05,1.7935e-08,2.0864e-09,8.6522e-05,1.3732e-05,"MBA","Otto Matic",14418,"1976-09-25","2016-03-17",1301,NA,NA,"0",0.48992,NA,NA,NA,NA,NA,16934,"Valid","L6","420","Fell",1995,36.44917,136.46528,"(36.449170, 136.465280)"
"137","Ningbo","a0003543",2003543,"  3543 Ningbo (1964 VA3)","3543","","N","N",12,NA,NA,NA,NA,NA,NA,"","",NA,NA,NA,NA,NA,NA,"","",NA,NA,"JPL 21",2457400.5,57400,20160113,"J2000",0.170922836238512,3.17842594864838,2.63516037073132,1.04628931276506,162.803401520437,109.97151165503,133.241837423452,3.72169152656545,0.173934577837694,2456634.45428856,20131207.9542886,2069.74371902021,5.66664947028121,1.61762,629.5291754,1.38628,3.177,3.6625e-08,2.2459e-08,1.1356e-07,4.8162e-06,0.00022812,0.00022878,1.5929e-05,2.6298e-08,1.8435e-09,9.005e-05,2.1937e-05,"MBA","Otto Matic",23132,"1952-11-16","2016-03-17",1944,NA,NA,"0",0.4974,NA,NA,NA,NA,NA,16980,"Valid","Iron, IVA","14250","Fell",1975,29.86667,121.48333,"(29.866670, 121.483330)"
"138","Novosibirsk","a0004271",2004271,"  4271 Novosibirsk (1976 GQ6)","4271","","N","N",11.7,NA,NA,NA,NA,NA,NA,"","",NA,8.85,NA,NA,NA,NA,"","",NA,NA,"JPL 21",2457400.5,57400,20160113,"J2000",0.0942439288812664,3.01211282463641,2.72823947780903,10.9228318411687,160.063065017648,130.057392993773,147.327702164681,3.2959861714638,0.188537272977459,2456619.07519292,20131122.5751929,1909.43676183881,5.22775294137937,1.72586,671.6529362,1.96854,3.215,4.3823e-08,2.4047e-08,1.2863e-07,5.9161e-06,2.5681e-05,4.2624e-05,3.3669e-05,2.6313e-08,2.2578e-09,0.00017843,2.2866e-05,"MBA","Otto Matic",14595,"1976-04-03","2016-03-19",1358,NA,NA,"0",0.49908,NA,NA,NA,NA,NA,17932,"Valid","H5/6","11410","Found",1978,55,82.9,"(55.000000, 82.900000)"
"139","Oliver","a0002177",2002177,"  2177 Oliver (6551 P-L)","2177","","N","N",11.9,NA,NA,NA,NA,NA,NA,"20.42","",0.1279,6.1065,NA,NA,NA,NA,"","",NA,2.2,"JPL 20",2457400.5,57400,20160113,"J2000",0.102893009113303,3.19038953560389,2.86212075604201,1.52498361348602,51.4783586010237,274.638990552871,272.591715504889,3.51865831516577,0.172957144155842,2457905.87539182,20170601.3753918,2081.44047334422,5.69867343831407,1.84886,719.5208462,1.77231,3.188,4.469e-08,2.3371e-08,1.4864e-07,5.3491e-06,0.00017091,0.00017298,2.8281e-05,2.5775e-08,1.9005e-09,0.00016518,2.2871e-05,"MBA","Otto Matic",22950,"1953-05-18","2016-03-18",1722,NA,NA,"0",0.50584,NA,NA,NA,NA,NA,18014,"Valid","L6","6690","Found",1984,41.2,-103.68333,"(41.200000, -103.683330)"
"140","Otto","a0002962",2002962,"  2962 Otto (1940 YF)","2962","","N","N",11.1,NA,NA,NA,NA,NA,NA,"","",NA,2.678,NA,NA,NA,NA,"","",NA,NA,"JPL 15",2457400.5,57400,20160113,"J2000",0.0398077258831872,2.56837435956535,2.46613321709437,15.6412974832308,54.2223736693629,117.310756828872,21.1619349213814,2.67061550203633,0.239450961591962,2457312.12309485,20151016.6230948,1503.43935813237,4.1161926300681,1.49157,580.4742969,2.3404,3.378,5.0725e-08,1.4363e-08,1.3044e-07,6.0059e-06,1.9441e-05,7.3912e-05,6.9925e-05,1.4934e-08,2.0085e-09,0.00029214,1.2611e-05,"MBA","Otto Matic",30837,"1931-10-07","2016-03-11",958,NA,NA,"0",0.5449,NA,NA,NA,NA,NA,18047,"Valid","H5","28","Found",1970,35.16667,-105.98333,"(35.166670, -105.983330)"
"141","Palermo","a0010001",2010001," 10001 Palermo (1969 TM1)","10001","","N","N",13.9,NA,NA,NA,NA,NA,NA,"","",NA,213.3679,NA,NA,NA,NA,"","",NA,NA,"JPL 19",2457400.5,57400,20160113,"J2000",0.134232149957677,2.37648490666869,2.05748422830458,7.42488044110052,40.1650426962831,357.985648364752,211.555081198936,2.69548558503279,0.269030478034578,2457952.27732979,20170717.7773298,1338.13835008586,3.66362313507421,1.06363,413.9328871,2.71712,3.518,7.828e-08,1.3561e-08,1.8486e-07,7.7811e-06,4.1824e-05,4.663e-05,2.0873e-05,1.5381e-08,2.3027e-09,7.9074e-05,1.1454e-05,"MBA","Otto Matic",22264,"1954-07-29","2015-07-13",1099,NA,NA,"0",0.47005,NA,NA,NA,NA,NA,18076,"Valid","Unknown","","Found",1966,-34.55,-58.43333,"(-34.550000, -58.433330)"
"142","Palmyra","a0013131",2013131," 13131 Palmyra (1994 PL32)","13131","","N","N",15,NA,NA,NA,NA,NA,NA,"","",NA,NA,NA,NA,NA,NA,"","",NA,NA,"JPL 13",2457400.5,57400,20160113,"J2000",0.191200468416298,2.57259590994684,2.08071436691915,3.4469529627434,218.304313008597,208.038153686779,359.679240435522,3.06447745297452,0.238861806012361,2457401.8428667,20160114.3428667,1507.14760978308,4.12634526976887,1.09426,425.8531642,2.25555,3.4,8.0325e-08,1.7288e-08,2.089e-07,8.976e-06,8.1411e-05,8.3809e-05,1.5124e-05,2.0594e-08,2.4078e-09,6.3314e-05,1.5193e-05,"MBA","Otto Matic",13623,"1978-11-29","2016-03-17",755,NA,NA,"0",0.58391,NA,NA,NA,NA,NA,18079,"Valid","L3","135","Fell",1926,39.8,-91.5,"(39.800000, -91.500000)"
"143","Paris","a0003317",2003317,"  3317 Paris (1984 KF)","3317","","N","N",8.4,NA,NA,NA,NA,NA,NA,"116.26","",0.0626,7.082,NA,NA,NA,NA,"T","",NA,5.2,"JPL 26",2457400.5,57400,20160113,"J2000",0.126145534794535,5.22347270552483,4.56455494760174,27.8605441399808,135.896621162033,150.202052207711,179.134993911474,5.88239046344792,0.0825591245978766,2455230.72173765,20100203.2217376,4360.51135175505,11.938429436701,3.57121,1389.8077957,0.413347,2.754,6.3179e-08,1.2922e-07,2.9953e-07,6.5474e-06,1.2437e-05,2.4505e-05,2.2111e-05,1.4553e-07,3.0637e-09,0.00026667,0.00016181,"TJN","Otto Matic",19190,"1963-08-21","2016-03-05",1024,NA,NA,"0",0.50091,NA,NA,NA,NA,NA,50907,"Valid","CM","1370","Found",2001,NA,NA,""
"144","Parsa","a0014277",2014277," 14277 Parsa (2000 CS13)","14277","","N","N",14.7,NA,NA,NA,NA,NA,NA,"","",NA,NA,NA,NA,NA,NA,"","",NA,NA,"JPL 13",2457400.5,57400,20160113,"J2000",0.0507780277732389,2.80132077512458,2.65907523100356,3.8859090702014,187.704764388812,300.374508818062,145.401277645075,2.94356631924561,0.210213116448142,2456708.81491345,20140220.3149134,1712.54775193254,4.68870021062982,1.67646,652.4279382,2.079,3.32,5.6064e-08,2.5572e-08,1.5229e-07,7.2381e-06,8.5355e-05,0.00011237,7.2837e-05,2.6871e-08,2.8784e-09,0.00034517,2.345e-05,"MBA","Otto Matic",7922,"1993-09-14","2015-05-24",746,NA,NA,"0",0.54965,NA,NA,NA,NA,NA,18109,"Valid","EH3","800","Fell",1942,26.2,85.4,"(26.200000, 85.400000)"
"145","Patricia","a0000436",2000436,"   436 Patricia (1898 DT)","436","","N","N",10,NA,NA,NA,NA,NA,NA,"59.53","",0.0599,16.133,NA,NA,NA,NA,"","",NA,4.2,"JPL 60",2457400.5,57400,20160113,"J2000",0.0664076201614106,3.20466738354639,2.99185304919618,18.5104666011201,351.345029720773,41.2910564529222,147.529629551461,3.4174817178966,0.171802561056812,2456541.78387468,20130906.2838747,2095.42860004836,5.73697084202153,2.0118,782.932206,1.93218,3.109,4.3293e-08,1.892e-08,1.4111e-07,4.5e-06,1.4637e-05,4.1553e-05,3.7634e-05,2.0177e-08,1.5215e-09,0.00021787,1.8557e-05,"OMB","Otto Matic",42919,"1898-09-14","2016-03-18",1466,NA,NA,"0",0.5554,NA,NA,NA,NA,NA,18115,"Valid","H5","14900","Found",1983,32.5,-102.03333,"(32.500000, -102.033330)"
